Osculating state [a, e, i, Ω, ω, M] (deg):
Semi-major axis (m): 6878136.299
Eccentricity: 0.010000
Inclination (deg): 97.800000
RA of ascending node (deg): 15.000000
Argument of periapsis (deg): 30.000000
Mean anomaly (deg): 45.000000

Osculating state [a, e, i, Ω, ω, M] (rad):
Semi-major axis (m): 6878136.299
Eccentricity: 0.010000
Inclination (rad): 1.706932
RA of ascending node (rad): 0.261799
Argument of periapsis (rad): 0.523599
Mean anomaly (rad): 0.785398
